NORAD_CAT_ID,OBJECT_NAME,OBJECT_TYPE,EPOCH,MEAN_MOTION,ECCENTRICITY,INCLINATION,RA_OF_ASC_NODE,ARG_OF_PERICENTER,MEAN_ANOMALY,BSTAR,MEAN_MOTION_DOT,MEAN_MOTION_DDOT,TLE_LINE0,TLE_LINE1,TLE_LINE2,SEMIMAJOR_AXIS,PERIOD,APOGEE,PERIGEE,DECAYED
54006.0,STARLINK-5096,PAYLOAD,2023-10-20 20:44:29,15.08834608,0.0001273,53.2156,162.9804,106.3221,253.7911,-1.076e-05,-4.59e-06,0.0,0 STARLINK-5096,1 54006U 22125AU  23293.86423461 -.00000459  00000-0 -10760-4 0  9998,2 54006  53.2156 162.9804 0001273 106.3221 253.7911 15.08834608 57998,6917.897,95.438,540.643,538.881,0.0
54006.0,STARLINK-5096,PAYLOAD,2023-10-21 07:52:11,15.08839128,0.0001387,53.2149,160.9003,101.9134,258.2014,0.00013804,1.91e-05,0.0,0 STARLINK-5096,1 54006U 22125AU  23294.32791467  .00001910  00000-0  13804-3 0  9996,2 54006  53.2149 160.9003 0001387 101.9134 258.2014 15.08839128 58121,6917.883,95.438,540.708,538.789,0.0
54006.0,STARLINK-5096,PAYLOAD,2023-10-21 22:10:39,15.08851669,0.0001499,53.2156,158.2235,107.0356,253.0801,0.00064299,9.963e-05,0.0,0 STARLINK-5096,1 54006U 22125AU  23294.92407241  .00009963  00000-0  64299-3 0  9996,2 54006  53.2156 158.2235 0001499 107.0356 253.0801 15.08851669 58157,6917.845,95.437,540.747,538.673,0.0
54006.0,STARLINK-5096,PAYLOAD,2023-10-21 23:46:02,15.08855786,0.0001467,53.2156,157.9264,105.6567,254.4587,0.0007467,0.00011621,0.0,0 STARLINK-5096,1 54006U 22125AU  23294.99031169  .00011621  00000-0  74670-3 0  9993,2 54006  53.2156 157.9264 0001467 105.6567 254.4587 15.08855786 58226,6917.832,95.437,540.712,538.682,0.0
54006.0,STARLINK-5096,PAYLOAD,2023-10-22 07:42:58,15.08846941,0.0001685,53.2168,156.4381,82.7912,277.3272,5.5416e-05,5.94e-06,0.0,0 STARLINK-5096,1 54006U 22125AU  23295.32151337  .00000594  00000-0  55416-4 0  9996,2 54006  53.2168 156.4381 0001685  82.7912 277.3272 15.08846941 58277,6917.859,95.437,540.89,538.559,0.0
54006.0,STARLINK-5096,PAYLOAD,2023-10-22 20:26:04,15.0882884,0.0001457,53.2161,154.0617,93.391,266.7249,-7.0195e-05,-1.405e-05,0.0,0 STARLINK-5096,1 54006U 22125AU  23295.85143999 -.00001405  00000-0 -70195-4 0  9994,2 54006  53.2161 154.0617 0001457  93.3910 266.7249 15.08828840 58352,6917.915,95.438,540.787,538.772,0.0
54006.0,STARLINK-5096,PAYLOAD,2023-10-22 22:01:27,15.08829531,0.0001437,53.216,153.7642,92.2632,267.8524,6.4113e-05,7.32e-06,0.0,0 STARLINK-5096,1 54006U 22125AU  23295.91768068  .00000732  00000-0  64113-4 0  9994,2 54006  53.2160 153.7642 0001437  92.2632 267.8524 15.08829531 58303,6917.912,95.438,540.771,538.783,0.0
54006.0,STARLINK-5096,PAYLOAD,2023-10-23 21:52:15,15.08846632,0.0001266,53.2152,149.303,88.0692,272.0445,0.00086724,0.00013544,0.0,0 STARLINK-5096,1 54006U 22125AU  23296.91128530  .00013544  00000-0  86724-3 0  9995,2 54006  53.2152 149.3030 0001266  88.0692 272.0445 15.08846632 58452,6917.86,95.437,540.601,538.849,0.0
54006.0,STARLINK-5096,PAYLOAD,2023-10-24 04:13:47,15.08847107,0.0001288,53.215,148.1132,86.5935,273.5205,0.00057129,8.818e-05,0.0,0 STARLINK-5096,1 54006U 22125AU  23297.17624424  .00008818  00000-0  57129-3 0  9992,2 54006  53.2150 148.1132 0001288  86.5935 273.5205 15.08847107 58556,6917.859,95.437,540.615,538.833,0.0
54006.0,STARLINK-5096,PAYLOAD,2023-10-24 13:46:06,15.08848917,0.0001288,53.2148,146.3292,89.611,270.503,0.00041821,6.376e-05,0.0,0 STARLINK-5096,1 54006U 22125AU  23297.57368265  .00006376  00000-0  41821-3 0  9993,2 54006  53.2148 146.3292 0001288  89.6110 270.5030 15.08848917 58552,6917.853,95.437,540.609,538.827,0.0
54006.0,STARLINK-5096,PAYLOAD,2023-10-25 13:36:53,15.08846306,0.000163,53.2149,141.8684,84.9433,275.1745,0.00018829,2.71e-05,0.0,0 STARLINK-5096,1 54006U 22125AU  23298.56728105  .00002710  00000-0  18829-3 0  9996,2 54006  53.2149 141.8684 0001630  84.9433 275.1745 15.08846306 58762,6917.861,95.437,540.854,538.599,0.0
54006.0,STARLINK-5096,PAYLOAD,2023-10-25 21:33:48,15.08841767,0.000136,53.2149,140.3816,85.0842,275.0305,8.2768e-05,1.03e-05,0.0,0 STARLINK-5096,1 54006U 22125AU  23298.89848073  .00001030  00000-0  82768-4 0  9997,2 54006  53.2149 140.3816 0001360  85.0842 275.0305 15.08841767 58755,6917.875,95.437,540.681,538.799,0.0
54006.0,STARLINK-5096,PAYLOAD,2023-10-26 11:52:16,15.0884436,0.0001353,53.2152,137.7048,82.9253,277.1893,5.7161e-05,6.22e-06,0.0,0 STARLINK-5096,1 54006U 22125AU  23299.49464009  .00000622  00000-0  57161-4 0  9992,2 54006  53.2152 137.7048 0001353  82.9253 277.1893 15.08844360 58904,6917.867,95.437,540.668,538.796,0.0
54006.0,STARLINK-5096,PAYLOAD,2023-10-26 13:27:40,15.08843225,0.0001351,53.2154,137.4075,82.6887,277.4259,9.072e-05,1.156e-05,0.0,0 STARLINK-5096,1 54006U 22125AU  23299.56088135  .00001156  00000-0  90720-4 0  9993,2 54006  53.2154 137.4075 0001351  82.6887 277.4259 15.08843225 58853,6917.871,95.437,540.67,538.801,0.0
54006.0,STARLINK-5096,PAYLOAD,2023-10-26 21:24:35,15.0885023,0.0001375,53.2155,135.9202,91.4543,268.6607,0.00015058,2.11e-05,0.0,0 STARLINK-5096,1 54006U 22125AU  23299.89207666  .00002110  00000-0  15058-3 0  9992,2 54006  53.2155 135.9202 0001375  91.4543 268.6607 15.08850230 58901,6917.849,95.437,540.665,538.763,0.0
54006.0,STARLINK-5096,PAYLOAD,2023-10-27 13:18:27,15.08839116,0.0001357,53.2153,132.9468,83.071,277.0436,8.8748e-05,1.125e-05,0.0,0 STARLINK-5096,1 54006U 22125AU  23300.55448136  .00001125  00000-0  88748-4 0  9999,2 54006  53.2153 132.9468 0001357  83.0710 277.0436 15.08839116 59009,6917.883,95.438,540.687,538.809,0.0
54006.0,STARLINK-5096,PAYLOAD,2023-10-27 19:39:59,15.08843983,0.0001375,53.2153,131.7568,85.9217,274.1932,0.00012734,1.739e-05,0.0,0 STARLINK-5096,1 54006U 22125AU  23300.81943831  .00001739  00000-0  12734-3 0  9992,2 54006  53.2153 131.7568 0001375  85.9217 274.1932 15.08843983 59107,6917.868,95.437,540.684,538.782,0.0
54006.0,STARLINK-5096,PAYLOAD,2023-10-27 22:50:45,15.08843783,0.0001378,53.2153,131.1622,85.6096,274.5054,0.00011453,1.535e-05,0.0,0 STARLINK-5096,1 54006U 22125AU  23300.95191812  .00001535  00000-0  11453-3 0  9992,2 54006  53.2153 131.1622 0001378  85.6096 274.5054 15.08843783 59069,6917.869,95.437,540.687,538.781,0.0
54006.0,STARLINK-5096,PAYLOAD,2023-10-28 19:30:46,15.08842542,0.0001261,53.2162,127.296,86.7318,273.3818,4.9495e-05,5e-06,0.0,0 STARLINK-5096,1 54006U 22125AU  23301.81304014  .00000500  00000-0  49495-4 0  9997,2 54006  53.2162 127.2960 0001261  86.7318 273.3818 15.08842542 59258,6917.873,95.437,540.61,538.865,0.0
54006.0,STARLINK-5096,PAYLOAD,2023-10-29 13:00:01,15.08838642,0.0001351,53.2154,124.0258,93.862,266.2527,5.4417e-05,5.78e-06,0.0,0 STARLINK-5096,1 54006U 22125AU  23302.54168290  .00000578  00000-0  54417-4 0  9997,2 54006  53.2154 124.0258 0001351  93.8620 266.2527 15.08838642 59309,6917.885,95.438,540.684,538.815,0.0
54006.0,STARLINK-5096,PAYLOAD,2023-10-29 19:21:33,15.08843471,0.0001341,53.2155,122.8366,92.3593,267.7553,8.6521e-05,1.089e-05,0.0,0 STARLINK-5096,1 54006U 22125AU  23302.80663844  .00001089  00000-0  86521-4 0  9990,2 54006  53.2155 122.8366 0001341  92.3593 267.7553 15.08843471 59343,6917.87,95.437,540.662,538.807,0.0
54006.0,STARLINK-5096,PAYLOAD,2023-10-30 11:15:25,15.08836225,0.0001469,53.2157,119.8616,95.355,264.7609,0.00010594,1.398e-05,0.0,0 STARLINK-5096,1 54006U 22125AU  23303.46904455  .00001398  00000-0  10594-3 0  9998,2 54006  53.2157 119.8616 0001469  95.3550 264.7609 15.08836225 59502,6917.892,95.438,540.773,538.741,0.0
54006.0,STARLINK-5096,PAYLOAD,2023-10-31 12:41:35,15.08836376,0.0001593,53.2175,115.1045,88.3365,271.781,6.1035e-05,6.83e-06,0.0,0 STARLINK-5096,1 54006U 22125AU  23304.52888888  .00000683  00000-0  61035-4 0  9990,2 54006  53.2175 115.1045 0001593  88.3365 271.7810 15.08836376 59667,6917.891,95.438,540.858,538.654,0.0
54006.0,STARLINK-5096,PAYLOAD,2023-10-31 20:38:31,15.08838116,0.0001392,53.2164,113.6169,96.9456,263.1695,2.4507e-05,1.02e-06,0.0,0 STARLINK-5096,1 54006U 22125AU  23304.86008824  .00000102  00000-0  24507-4 0  9990,2 54006  53.2164 113.6169 0001392  96.9456 263.1695 15.08838116 59657,6917.886,95.438,540.714,538.788,0.0
54006.0,STARLINK-5096,PAYLOAD,2023-11-01 04:35:27,15.08842503,0.0001308,53.2163,112.1307,87.0625,273.0517,5.6308e-05,6.08e-06,0.0,0 STARLINK-5096,1 54006U 22125AU  23305.19128523  .00000608  00000-0  56308-4 0  9991,2 54006  53.2163 112.1307 0001308  87.0625 273.0517 15.08842503 59704,6917.873,95.437,540.643,538.833,0.0
54006.0,STARLINK-5096,PAYLOAD,2023-11-01 17:18:31,15.08849976,0.000139,53.2161,109.7517,91.908,268.2072,9.2106e-05,1.179e-05,0.0,0 STARLINK-5096,1 54006U 22125AU  23305.72119859  .00001179  00000-0  92106-4 0  9992,2 54006  53.2161 109.7517 0001390  91.9080 268.2072 15.08849976 59845,6917.85,95.437,540.676,538.753,0.0
54006.0,STARLINK-5096,PAYLOAD,2023-11-02 04:26:13,15.08849951,0.0001241,53.2161,107.671,87.8796,272.2339,7.3573e-05,8.84e-06,0.0,0 STARLINK-5096,1 54006U 22125AU  23306.18487852  .00000884  00000-0  73573-4 0  9993,2 54006  53.2161 107.6710 0001241  87.8796 272.2339 15.08849951 59855,6917.85,95.437,540.573,538.856,0.0
54006.0,STARLINK-5096,PAYLOAD,2023-11-02 17:09:19,15.08839449,0.0001243,53.2161,105.2916,90.16,269.9535,0.00013485,1.859e-05,0.0,0 STARLINK-5096,1 54006U 22125AU  23306.71480432  .00001859  00000-0  13485-3 0  9997,2 54006  53.2161 105.2916 0001243  90.1600 269.9535 15.08839449 59997,6917.882,95.438,540.607,538.887,0.0
54006.0,STARLINK-5096,PAYLOAD,2023-11-03 10:38:34,15.08836061,0.0001318,53.216,102.021,88.594,271.5203,-3.2261e-05,-8.01e-06,0.0,0 STARLINK-5096,1 54006U 22125AU  23307.44345041 -.00000801  00000-0 -32261-4 0  9996,2 54006  53.2160 102.0210 0001318  88.5940 271.5203 15.08836061 60102,6917.892,95.438,540.669,538.846,0.0
54006.0,STARLINK-5096,PAYLOAD,2023-11-03 13:49:20,15.08838149,0.0001249,53.2168,101.4267,86.8092,273.3043,-1.1487e-05,-4.71e-06,0.0,0 STARLINK-5096,1 54006U 22125AU  23307.57592838 -.00000471  00000-0 -11487-4 0  9998,2 54006  53.2168 101.4267 0001249  86.8092 273.3043 15.08838149 60063,6917.886,95.438,540.615,538.887,0.0
